     2.100          NAVIGATION                              RINEX VERSION / TYPE
fic2rin                                 09/04/2014 00:16:31 PGM / RUN BY / DATE
                                                            END OF HEADER
 8 14  9  3  1 59 44.0  .153789296746D-04  .113686837722D-12  .000000000000D+00
     .100000000000D+02  .441562500000D+02  .371444043564D-08 -.134756576279D+01
     .224076211452D-05  .145311254309D-01  .507384538651D-05  .515218072510D+04
     .266384000000D+06  .178813934326D-06 -.187393673402D+00 -.212341547012D-06
     .996333944005D+00  .300437500000D+03 -.272101517508D+01 -.776853787650D-08
     .546451333320D-10  .100000000000D+01  .180800000000D+04  .000000000000D+00
     .240000000000D+01  .000000000000D+00 -.419095158577D-08  .100000000000D+02
     .262986000000D+06  .400000000000D+01
 8 14  9  3  3 59 44.0  .153798609972D-04  .113686837722D-12  .000000000000D+00
     .610000000000D+02  .529062500000D+02  .397123684653D-08 -.296556086511D+00
     .267662107944D-05  .145301937591D-01  .527501106262D-05  .515217784882D+04
     .273584000000D+06  .102445483208D-06 -.187449887492D+00  .188127160072D-06
     .996332254335D+00  .294750000000D+03 -.272093523831D+01 -.813141013444D-08
    -.907180644858D-10  .100000000000D+01  .180800000000D+04  .000000000000D+00
     .240000000000D+01  .000000000000D+00 -.419095158577D-08  .610000000000D+02
     .266406000000D+06  .400000000000D+01
30 14  9  3  3 59 44.0 -.571482814848D-04 -.488853402203D-11  .000000000000D+00
     .400000000000D+01  .599687500000D+02  .463697886307D-08 -.293603246348D+00
     .295788049698D-05  .101227441337D-02  .516884028912D-05  .515366608810D+04
     .273584000000D+06 -.167638063431D-07 -.235955303411D+00  .335276126862D-07
     .958528193884D+00  .278312500000D+03  .306252538828D+01 -.827213028172D-08
    -.535736601294D-10  .100000000000D+01  .180800000000D+04  .000000000000D+00
     .240000000000D+01  .000000000000D+00  .325962901115D-08  .400000000000D+01
     .266406000000D+06  .400000000000D+01
 1 14  9  3  4  0  0.0  .206353142858D-04  .568434188608D-12  .000000000000D+00
     .530000000000D+02 -.900000000000D+01  .465019369923D-08  .344241332039D+00
    -.422820448875D-06  .345164246392D-02  .800564885139D-05  .515367122269D+04
     .273600000000D+06  .428408384323D-07  .283382910193D+01  .540167093277D-07
     .961557382279D+00  .226781250000D+03  .396210488854D+00 -.806033574534D-08
     .338942689752D-09  .100000000000D+01  .180800000000D+04  .000000000000D+00
     .240000000000D+01  .000000000000D+00  .558793544769D-08  .530000000000D+02
     .266406000000D+06  .400000000000D+01
 2 14  9  3  4  0  0.0  .516230706125D-03  .216004991671D-11  .000000000000D+00
     .870000000000D+02 -.118750000000D+01  .518057293451D-08  .104384366716D+01
    -.139698386192D-06  .137312716106D-01  .788271427155D-05  .515366718292D+04
     .273600000000D+06 -.162050127983D-06  .280208214261D+01  .139698386192D-06
     .940099595402D+00  .216593750000D+03 -.239261231288D+01 -.851892627605D-08
     .186436337250D-09  .100000000000D+01  .180800000000D+04  .000000000000D+00
     .240000000000D+01  .000000000000D+00 -.200234353542D-07  .870000000000D+02
     .266406000000D+06  .400000000000D+01
 4 14  9  3  4  0  0.0 -.406522303820D-06 -.341060513165D-12  .000000000000D+00
     .200000000000D+02 -.306250000000D+01  .518771608920D-08 -.824761325865D+00
     .987201929092D-07  .109997563995D-01  .780448317528D-05  .515198380661D+04
     .273600000000D+06 -.130385160446D-07  .281785037044D+01  .180676579475D-06
     .939116793870D+00  .218218750000D+03  .107142047463D+01 -.848071039849D-08
     .362515100209D-09  .100000000000D+01  .180800000000D+04  .000000000000D+00
     .240000000000D+01  .000000000000D+00 -.651925802231D-08  .200000000000D+02
     .266406000000D+06  .400000000000D+01
 5 14  9  3  4  0  0.0 -.343387946486D-03  .363797880709D-11  .000000000000D+00
     .310000000000D+02 -.443750000000D+01  .510378402166D-08 -.285886685416D+01
    -.245869159698D-06  .377452117391D-02  .807829201221D-05  .515366998672D+04
     .273600000000D+06 -.102445483208D-06 -.241283182591D+01 -.540167093277D-07
     .947093435157D+00  .219812500000D+03  .322937356369D+00 -.820427031222D-08
    -.126790995640D-09  .100000000000D+01  .180800000000D+04  .000000000000D+00
     .240000000000D+01  .000000000000D+00 -.102445483208D-07  .310000000000D+02
     .266406000000D+06  .400000000000D+01
 6 14  9  3  4  0  0.0 -.514183193445D-05  .000000000000D+00  .000000000000D+00
     .990000000000D+02 -.715625000000D+01  .458340520294D-08 -.295390302016D+01
    -.389292836189D-06  .497061992064D-03  .770762562752D-05  .515359241486D+04
     .273600000000D+06 -.428408384323D-07  .282526800000D+01  .242143869400D-07
     .961476626275D+00  .225343750000D+03  .215438426529D+01 -.807926510525D-08
     .359300680601D-09  .100000000000D+01  .180800000000D+04  .000000000000D+00
     .240000000000D+01  .000000000000D+00  .465661287308D-08  .990000000000D+02
     .266406000000D+06  .400000000000D+01
 7 14  9  3  4  0  0.0  .387313775718D-03  .432009983342D-11  .000000000000D+00
     .570000000000D+02  .610000000000D+02  .443054169270D-08 -.208547837483D+00
     .302307307720D-05  .787533354014D-02  .551715493202D-05  .515361280632D+04
     .273600000000D+06  .260770320892D-07 -.289018436218D+00  .931322574615D-07
     .972894009923D+00  .277312500000D+03 -.279538387375D+01 -.825070081766D-08
    -.789318592573D-10  .100000000000D+01  .180800000000D+04  .000000000000D+00
     .340000000000D+01  .000000000000D+00 -.107102096081D-07  .570000000000D+02
     .266406000000D+06  .400000000000D+01
 9 14  9  3  4  0  0.0  .202981755137D-04  .568434188608D-12  .000000000000D+00
     .590000000000D+02  .514375000000D+02  .451554523344D-08  .141673466105D+01
     .277906656265D-05  .421615550295D-03  .103227794170D-04  .516604235840D+04
     .273600000000D+06  .186264514923D-07 -.136340705460D+01  .242143869400D-07
     .959421608195D+00  .177093750000D+03 -.268546038921D+01 -.793068748782D-08
    -.193936649668D-09  .100000000000D+01  .180800000000D+04  .000000000000D+00
     .340000000000D+01  .630000000000D+02  .372529029846D-08  .590000000000D+02
     .266406000000D+06  .400000000000D+01
10 14  9  3  4  0  0.0 -.140434131026D-03 -.147792889038D-11  .000000000000D+00
     .102000000000D+03 -.137187500000D+02  .518235872319D-08 -.266102953294D+01
    -.100582838058D-05  .138554632431D-01  .782310962677D-05  .515361175346D+04
     .273600000000D+06  .152736902237D-06 -.239614761241D+01 -.225380063057D-06
     .941878552062D+00  .217531250000D+03  .878339103012D+00 -.815783980677D-08
    -.492877673191D-10  .100000000000D+01  .180800000000D+04  .000000000000D+00
     .485000000000D+01  .000000000000D+00 -.279396772385D-08  .102000000000D+03
     .266406000000D+06  .400000000000D+01
11 14  9  3  4  0  0.0 -.518307555467D-03 -.295585778076D-11  .000000000000D+00
     .820000000000D+02 -.128125000000D+02  .625240329484D-08 -.819880778068D-01
    -.657513737679D-06  .154434930300D-01  .831298530102D-05  .515370547485D+04
     .273600000000D+06 -.175088644028D-06  .250271082240D+01  .141561031342D-06
     .891385203097D+00  .186093750000D+03  .132633925010D+01 -.909216443943D-08
     .400373820034D-09  .100000000000D+01  .180800000000D+04  .000000000000D+00
     .240000000000D+01  .000000000000D+00 -.121071934700D-07  .820000000000D+02
     .266406000000D+06  .400000000000D+01
12 14  9  3  4  0  0.0  .229310244322D-03  .261479726760D-11  .000000000000D+00
     .470000000000D+02 -.471562500000D+02  .401623872103D-08 -.658667891842D+00
    -.257231295109D-05  .506622716784D-02  .565685331821D-05  .515355647659D+04
     .273600000000D+06  .651925802231D-07  .774920274517D+00  .596046447754D-07
     .988253529161D+00  .284531250000D+03  .503541580151D+00 -.802604860285D-08
    -.203579908492D-09  .100000000000D+01  .180800000000D+04  .000000000000D+00
     .240000000000D+01  .000000000000D+00 -.121071934700D-07  .470000000000D+02
     .266406000000D+06  .400000000000D+01
13 14  9  3  4  0  0.0 -.375742092729D-04 -.397903932026D-11  .000000000000D+00
     .710000000000D+02  .606562500000D+02  .417374528182D-08  .210578033647D+01
     .328943133354D-05  .524271652102D-02  .967271625996D-05  .515378132439D+04
     .273600000000D+06  .838190317154D-07 -.125258216529D+01 -.111758708954D-07
     .976318524134D+00  .197250000000D+03  .232330974194D+01 -.779461039110D-08
    -.221437795202D-09  .100000000000D+01  .180800000000D+04  .000000000000D+00
     .240000000000D+01  .000000000000D+00 -.111758708954D-07  .710000000000D+02
     .266406000000D+06  .400000000000D+01
14 14  9  3  4  0  0.0  .138646923006D-03 -.375166564481D-11  .000000000000D+00
     .970000000000D+02  .723437500000D+02  .422267589140D-08  .245409817751D+01
     .360980629921D-05  .789342727512D-02  .966526567936D-05  .515371760368D+04
     .273600000000D+06  .279396772385D-07 -.128516204873D+01 -.132247805595D-06
     .968845970769D+00  .194625000000D+03 -.198311856151D+01 -.775532304033D-08
    -.217151902391D-09  .100000000000D+01  .180800000000D+04  .000000000000D+00
     .240000000000D+01  .000000000000D+00 -.884756445885D-08  .970000000000D+02
     .266406000000D+06  .400000000000D+01
15 14  9  3  4  0  0.0 -.200608279556D-03 -.227373675443D-11  .000000000000D+00
     .920000000000D+02  .527500000000D+02  .522450333582D-08  .183893790237D+01
     .291503965855D-05  .648659642320D-02  .915303826332D-05  .515375830460D+04
     .273600000000D+06 -.577419996262D-07 -.140048213712D+01  .176951289177D-06
     .935420691844D+00  .190968750000D+03  .273837169160D+00 -.835534803378D-08
    -.217509060125D-09  .100000000000D+01  .180800000000D+04  .000000000000D+00
     .240000000000D+01  .000000000000D+00 -.102445483208D-07  .920000000000D+02
     .266406000000D+06  .400000000000D+01
